NORAD_CAT_ID,OBJECT_NAME,OBJECT_TYPE,EPOCH,MEAN_MOTION,ECCENTRICITY,INCLINATION,RA_OF_ASC_NODE,ARG_OF_PERICENTER,MEAN_ANOMALY,BSTAR,MEAN_MOTION_DOT,MEAN_MOTION_DDOT,TLE_LINE0,TLE_LINE1,TLE_LINE2,SEMIMAJOR_AXIS,PERIOD,APOGEE,PERIGEE,DECAYED
52626.0,STARLINK-3990,PAYLOAD,2024-03-04 22:28:39,15.08848533,0.0001315,53.2169,327.5571,78.4814,281.6326,0.00017848,2.554e-05,0.0,0 STARLINK-3990,1 52626U 22052AE  24064.93656521  .00002554  00000-0  17848-3 0  9992,2 52626  53.2169 327.5571 0001315  78.4814 281.6326 15.08848533100061,6917.854,95.437,540.629,538.81,0.0
52626.0,STARLINK-3990,PAYLOAD,2024-03-05 03:14:48,15.0885576,0.0001381,53.2175,326.659,113.1938,246.92,0.00030502,4.572e-05,0.0,0 STARLINK-3990,1 52626U 22052AE  24065.13527996  .00004572  00000-0  30502-3 0  9992,2 52626  53.2175 326.6590 0001381 113.1938 246.9200 15.08855760100094,6917.832,95.437,540.653,538.742,0.0
52626.0,STARLINK-3990,PAYLOAD,2024-03-05 20:44:03,15.08836139,0.0001975,53.2163,323.3836,141.6075,218.5058,-1.1687e-05,-4.74e-06,0.0,0 STARLINK-3990,1 52626U 22052AE  24065.86392418 -.00000474  00000-0 -11687-4 0  9994,2 52626  53.2163 323.3836 0001975 141.6075 218.5058 15.08836139100584,6917.892,95.438,541.123,538.391,0.0
52626.0,STARLINK-3990,PAYLOAD,2024-03-06 03:05:36,15.08833706,0.0001253,53.2176,322.2007,115.4617,244.6505,9.0276e-05,1.149e-05,0.0,0 STARLINK-3990,1 52626U 22052AE  24066.12888960  .00001149  00000-0  90276-4 0  9995,2 52626  53.2176 322.2007 0001253 115.4617 244.6505 15.08833706100243,6917.9,95.438,540.631,538.898,0.0
52626.0,STARLINK-3990,PAYLOAD,2024-03-06 23:45:37,15.08837579,0.0001028,53.2172,318.3374,86.7903,273.3206,0.00025544,3.78e-05,0.0,0 STARLINK-3990,1 52626U 22052AE  24066.99001517  .00003780  00000-0  25544-3 0  9993,2 52626  53.2172 318.3374 0001028  86.7903 273.3206 15.08837579100755,6917.888,95.438,540.464,539.042,0.0
52626.0,STARLINK-3990,PAYLOAD,2024-03-07 09:17:56,15.08840758,0.0001058,53.217,316.5535,88.818,271.2933,0.00035641,5.389e-05,0.0,0 STARLINK-3990,1 52626U 22052AE  24067.38745623  .00005389  00000-0  35641-3 0  9996,2 52626  53.2170 316.5535 0001058  88.8180 271.2933 15.08840758100437,6917.878,95.438,540.475,539.011,0.0
52626.0,STARLINK-3990,PAYLOAD,2024-03-08 02:47:10,15.0884738,0.0001186,53.2165,313.282,98.318,261.7947,0.00041763,6.366e-05,0.0,0 STARLINK-3990,1 52626U 22052AE  24068.11609678  .00006366  00000-0  41763-3 0  9995,2 52626  53.2165 313.2820 0001186  98.3180 261.7947 15.08847380100921,6917.858,95.437,540.543,538.902,0.0
52626.0,STARLINK-3990,PAYLOAD,2024-03-09 01:02:34,15.08845055,0.0001202,53.2158,309.1184,107.765,252.3474,0.00018583,2.671e-05,0.0,0 STARLINK-3990,1 52626U 22052AE  24069.04345543  .00002671  00000-0  18583-3 0  9995,2 52626  53.2158 309.1184 0001202 107.7650 252.3474 15.08845055101060,6917.865,95.437,540.561,538.898,0.0
52626.0,STARLINK-3990,PAYLOAD,2024-03-09 08:59:30,15.08843644,0.0001143,53.2161,307.6317,96.0287,264.0835,0.00013203,1.814e-05,0.0,0 STARLINK-3990,1 52626U 22052AE  24069.37465600  .00001814  00000-0  13203-3 0  9990,2 52626  53.2161 307.6317 0001143  96.0287 264.0835 15.08843644100731,6917.869,95.437,540.525,538.944,0.0
52626.0,STARLINK-3990,PAYLOAD,2024-03-10 08:50:17,15.08839985,0.0001009,53.2155,303.1697,98.5662,261.5444,1.7959e-05,-2e-08,0.0,0 STARLINK-3990,1 52626U 22052AE  24070.36825524 -.00000002  00000-0  17959-4 0  9998,2 52626  53.2155 303.1697 0001009  98.5662 261.5444 15.08839985101261,6917.88,95.438,540.443,539.047,0.0
52626.0,STARLINK-3990,PAYLOAD,2024-03-10 21:33:23,15.08825852,0.0001323,53.2122,300.7917,90.7604,269.354,0.00031262,4.689e-05,0.0,0 STARLINK-3990,1 52626U 22052AE  24070.89818422  .00004689  00000-0  31262-3 0  9991,2 52626  53.2122 300.7917 0001323  90.7604 269.3540 15.08825852101342,6917.924,95.438,540.704,538.873,0.0
52626.0,STARLINK-3990,PAYLOAD,2024-03-11 08:41:04,15.08841161,0.0001032,53.2161,298.7103,97.0898,263.0211,0.00010569,1.395e-05,0.0,0 STARLINK-3990,1 52626U 22052AE  24071.36185757  .00001395  00000-0  10569-3 0  9990,2 52626  53.2161 298.7103 0001032  97.0898 263.0211 15.08841161101415,6917.877,95.437,540.456,539.028,0.0
52626.0,STARLINK-3990,PAYLOAD,2024-03-11 15:02:37,15.0884,9.45e-05,53.2171,297.5203,106.811,253.2986,8.0302e-05,9.91e-06,0.0,0 STARLINK-3990,1 52626U 22052AE  24071.62681780  .00000991  00000-0  80302-4 0  9990,2 52626  53.2171 297.5203 0000945 106.8110 253.2986 15.08840000101075,6917.88,95.438,540.399,539.092,0.0
52626.0,STARLINK-3990,PAYLOAD,2024-03-11 21:24:09,15.08844944,4.53e-05,53.2174,296.3315,124.6157,235.4878,9.7818e-05,1.27e-05,0.0,0 STARLINK-3990,1 52626U 22052AE  24071.89177192  .00001270  00000-0  97818-4 0  9997,2 52626  53.2174 296.3315 0000453 124.6157 235.4878 15.08844944101110,6917.865,95.437,540.044,539.417,0.0
52626.0,STARLINK-3990,PAYLOAD,2024-03-13 00:25:43,15.08838166,0.0001292,53.2164,291.2782,92.4245,267.6895,7.8493e-05,9.61e-06,0.0,0 STARLINK-3990,1 52626U 22052AE  24073.01786210  .00000961  00000-0  78493-4 0  9994,2 52626  53.2164 291.2782 0001292  92.4245 267.6895 15.08838166101668,6917.886,95.438,540.645,538.857,0.0
52626.0,STARLINK-3990,PAYLOAD,2024-03-13 21:05:43,15.08842479,9.58e-05,53.2129,287.412,87.3769,272.7332,0.0001113,1.484e-05,0.0,0 STARLINK-3990,1 52626U 22052AE  24073.87897803  .00001484  00000-0  11130-3 0  9994,2 52626  53.2129 287.4120 0000958  87.3769 272.7332 15.08842479101412,6917.873,95.437,540.401,539.075,0.0
52626.0,STARLINK-3990,PAYLOAD,2024-03-14 06:38:03,15.08824255,8.98e-05,53.2127,285.6243,69.137,290.9718,0.00041402,6.305e-05,0.0,0 STARLINK-3990,1 52626U 22052AE  24074.27642591  .00006305  00000-0  41402-3 0  9993,2 52626  53.2127 285.6243 0000898  69.1370 290.9718 15.08824255101855,6917.929,95.439,540.415,539.172,0.0
52626.0,STARLINK-3990,PAYLOAD,2024-03-14 20:56:31,15.08837677,0.0001053,53.2163,282.9503,89.7585,270.3527,5.9282e-05,6.56e-06,0.0,0 STARLINK-3990,1 52626U 22052AE  24074.87258311  .00000656  00000-0  59282-4 0  9991,2 52626  53.2163 282.9503 0001053  89.7585 270.3527 15.08837677101946,6917.887,95.438,540.481,539.024,0.0
52626.0,STARLINK-3990,PAYLOAD,2024-03-15 16:01:09,15.08837133,0.0001188,53.2156,279.3792,90.8736,269.2392,2.5777e-05,1.22e-06,0.0,0 STARLINK-3990,1 52626U 22052AE  24075.66746610  .00000122  00000-0  25777-4 0  9993,2 52626  53.2156 279.3792 0001188  90.8736 269.2392 15.08837133101683,6917.889,95.438,540.576,538.932,0.0
52626.0,STARLINK-3990,PAYLOAD,2024-03-16 12:41:10,15.08833945,9.9e-05,53.2154,275.5131,113.8141,246.2955,4.8663e-05,4.87e-06,0.0,0 STARLINK-3990,1 52626U 22052AE  24076.52858896  .00000487  00000-0  48663-4 0  9992,2 52626  53.2154 275.5131 0000990 113.8141 246.2955 15.08833945102196,6917.899,95.438,540.449,539.079,0.0
52626.0,STARLINK-3990,PAYLOAD,2024-03-16 20:38:05,15.08838646,0.0001159,53.2157,274.0275,101.6161,258.4961,9.1563e-05,1.17e-05,0.0,0 STARLINK-3990,1 52626U 22052AE  24076.85978732  .00001170  00000-0  91563-4 0  9997,2 52626  53.2157 274.0275 0001159 101.6161 258.4961 15.08838646101865,6917.885,95.438,540.551,538.948,0.0
52626.0,STARLINK-3990,PAYLOAD,2024-03-17 12:31:57,15.08836479,0.0001193,53.216,271.0556,83.9198,276.193,0.00011456,1.536e-05,0.0,0 STARLINK-3990,1 52626U 22052AE  24077.52219064  .00001536  00000-0  11456-3 0  9996,2 52626  53.2160 271.0556 0001193  83.9198 276.1930 15.08836479101964,6917.891,95.438,540.581,538.931,0.0
52626.0,STARLINK-3990,PAYLOAD,2024-03-17 20:28:52,15.08841918,0.0001293,53.2164,269.5696,76.0003,284.1133,0.0001418,1.97e-05,0.0,0 STARLINK-3990,1 52626U 22052AE  24077.85338820  .00001970  00000-0  14180-3 0  9993,2 52626  53.2164 269.5696 0001293  76.0003 284.1133 15.08841918102390,6917.875,95.437,540.634,538.845,0.0
52626.0,STARLINK-3990,PAYLOAD,2024-03-18 12:22:44,15.08842218,0.0001335,53.2168,266.5963,77.5404,282.5738,0.00011626,1.563e-05,0.0,0 STARLINK-3990,1 52626U 22052AE  24078.51578920  .00001563  00000-0  11626-3 0  9994,2 52626  53.2168 266.5963 0001335  77.5404 282.5738 15.08842218102113,6917.874,95.437,540.662,538.815,0.0
52626.0,STARLINK-3990,PAYLOAD,2024-03-19 12:13:30,15.08847291,0.0001367,53.2168,262.1362,74.9346,285.1797,0.00010201,1.336e-05,0.0,0 STARLINK-3990,1 52626U 22052AE  24079.50938650  .00001336  00000-0  10201-3 0  9990,2 52626  53.2168 262.1362 0001367  74.9346 285.1797 15.08847291102265,6917.858,95.437,540.669,538.777,0.0
52626.0,STARLINK-3990,PAYLOAD,2024-03-19 18:35:03,15.08849661,0.0001452,53.2166,260.9467,71.8189,288.2961,0.00011826,1.595e-05,0.0,0 STARLINK-3990,1 52626U 22052AE  24079.77434377  .00001595  00000-0  11826-3 0  9997,2 52626  53.2166 260.9467 0001452  71.8189 288.2961 15.08849661102687,6917.851,95.437,540.72,538.711,0.0
52626.0,STARLINK-3990,PAYLOAD,2024-03-20 18:25:51,15.08835781,0.0001438,53.215,256.4882,96.8583,263.2573,1.4587e-05,-5.6e-07,0.0,0 STARLINK-3990,1 52626U 22052AE  24080.76795151 -.00000056  00000-0  14587-4 0  9998,2 52626  53.2150 256.4882 0001438  96.8583 263.2573 15.08835781102837,6917.893,95.438,540.753,538.763,0.0
52626.0,STARLINK-3990,PAYLOAD,2024-03-21 11:55:05,15.08840988,0.0001347,53.216,253.2107,100.6661,259.4482,-3.3205e-06,-3.41e-06,0.0,0 STARLINK-3990,1 52626U 22052AE  24081.49659255 -.00000341  00000-0 -33205-5 0  9990,2 52626  53.2160 253.2107 0001347 100.6661 259.4482 15.08840988102564,6917.877,95.437,540.674,538.811,0.0
52626.0,STARLINK-3990,PAYLOAD,2024-03-21 18:16:37,15.08844719,0.0001284,53.2159,252.0262,94.0368,266.0771,7.9159e-05,9.72e-06,0.0,0 STARLINK-3990,1 52626U 22052AE  24081.76154860  .00000972  00000-0  79159-4 0  9997,2 52626  53.2159 252.0262 0001284  94.0368 266.0771 15.08844719102607,6917.866,95.437,540.619,538.843,0.0
52626.0,STARLINK-3990,PAYLOAD,2024-03-22 11:45:53,15.08832147,0.0001277,53.2151,248.7545,66.9095,293.2031,1.003e-05,-1.28e-06,0.0,0 STARLINK-3990,1 52626U 22052AE  24082.49019797 -.00000128  00000-0  10030-4 0  9994,2 52626  53.2151 248.7545 0001277  66.9095 293.2031 15.08832147103099,6917.904,95.438,540.653,538.886,0.0
